O3B FM10                
1 40348U 14083A   26116.58758973 -.00000027  00000+0  00000+0 0  9991
2 40348   0.0387 337.8692 0002657  58.0180 324.1291  5.00115309207318
O3B FM11                
1 40349U 14083B   26116.60027462 -.00000027  00000+0  00000+0 0  9997
2 40349   0.0578 359.2869 0002917  22.5130 338.2110  5.00115560207321
O3B FM12                
1 40350U 14083C   26116.62733138 -.00000027  00000+0  00000+0 0  9995
2 40350   0.0570 358.9779 0002541  33.2070 327.8291  5.00115890207348
O3B FM9                 
1 40351U 14083D   26116.65416259 -.00000027  00000+0  00000+0 0  9991
2 40351   0.0590 359.1012 0002708  35.8424 325.0726  5.00115928207491
ASTRA 2G                
1 40364U 14089A   26116.85610325  .00000138  00000+0  00000+0 0  9995
2 40364   0.0572  30.8938 0004788  13.6479 146.6883  1.00271334 41452
SES-9                   
1 41380U 16013A   26116.72939019 -.00000357  00000+0  00000+0 0  9997
2 41380   0.0163 283.5415 0002062 136.6947 165.3595  1.00270561 36928
SES-10                  
1 42432U 17017A   26116.83729653 -.00000284  00000+0  00000+0 0  9993
2 42432   0.0285  20.6273 0002920  29.4648  39.2761  1.00272132 33235
SES-15                  
1 42709U 17026A   26116.72553317  .00000048  00000+0  00000+0 0  9997
2 42709   0.0245 325.6634 0000632  43.2935 337.8043  1.00269771  6918
SES-11 (ECHOSTAR 105)   
1 42967U 17063A   26116.61583963  .00000000  00000+0  00000+0 0  9990
2 42967   0.0196  65.9987 0002928 357.1886 268.1780  1.00269641 31206
SES-14                  
1 43175U 18012B   26116.41328501 -.00000291  00000+0  00000+0 0  9993
2 43175   0.0426  52.9389 0000879 336.9700 285.8004  1.00272597  6503
O3B FM15                
1 43231U 18024A   26116.52105647 -.00000027  00000+0  00000+0 0  9992
2 43231   0.0510   4.2349 0002637  29.2807 326.4995  5.00115707148444
O3B FM16                
1 43232U 18024B   26116.37351760 -.00000027  00000+0  00000+0 0  9995
2 43232   0.0487   8.1920 0002684  23.6117 328.2109  5.00115916148359
O3B FM14                
1 43233U 18024C   26116.01451709 -.00000027  00000+0  00000+0 0  9991
2 43233   0.0471   8.2311 0002860  27.6841 324.1024  5.00115703148346
O3B FM13                
1 43234U 18024D   26116.08037929 -.00000027  00000+0  00000+0 0  9993
2 43234   0.0556 328.9915 0003580  21.8257   9.1746  5.00115553148456
SES-12                  
1 43488U 18049A   26116.88358220  .00000000  00000+0  00000+0 0  9999
2 43488   0.0144  63.2838 0001237 244.0053 320.6885  1.00267263 28907
O3B FM20                
1 44112U 19020A   26116.64022822 -.00000027  00000+0  00000+0 0  9994
2 44112   0.0532   1.3328 0002587  24.1404 334.5380  5.00115510128991
O3B FM19                
1 44113U 19020B   26111.67003593 -.00000022  00000+0  00000+0 0  9992
2 44113   0.0716 348.2754 0003491  26.5306 345.2041  5.00115966128611
